0 RESURS O1 DEB
1 39051U 94074AB  13282.47997659  .00063328  00000-0  62437-2 0  2195
2 39051 098.1588 287.0126 0003624 101.8568 258.3056 14.91711241 44726
0 RESURS O1 DEB
1 39051U 94074AB  13283.82149499  .00049779  00000-0  49078-2 0  2208
2 39051 098.1598 288.3999 0003724 099.6236 260.5402 14.91800089 44927
0 RESURS O1 DEB
1 39051U 94074AB  13285.96773889  .00043928  00000-0  43172-2 0  2222
2 39051 098.1608 290.6215 0003528 097.4290 262.7328 14.91967380 45249
0 RESURS O1 DEB
1 39051U 94074AB  13286.97371036  .00038725  00000-0  38026-2 0  2234
2 39051 098.1592 291.6644 0003609 094.4290 265.7341 14.92038398 45398
0 RESURS O1 DEB
1 39051U 94074AB  13287.97962835  .00074330  00000-0  72395-2 0  2248
2 39051 098.1589 292.7062 0003428 093.7492 266.4118 14.92130044 45543
0 RESURS O1 DEB
1 39051U 94074AB  13288.98546759  .00060913  00000-0  59279-2 0  2252
2 39051 098.1585 293.7478 0003259 093.6592 266.4999 14.92247519 45692
0 RESURS O1 DEB
1 39051U 94074AB  13289.25367799  .00059573  00000-0  57962-2 0  2266
2 39051 098.1601 294.0281 0003436 096.3210 263.8399 14.92264545 45739
0 RESURS O1 DEB
1 39051U 94074AB  13290.46058349  .00061583  00000-0  59734-2 0  2273
2 39051 098.1563 295.2739 0003010 093.7011 266.4552 14.92375081 45913
0 RESURS O1 DEB
1 39051U 94074AB  13290.99695934  .00048380  00000-0  46964-2 0  2280
2 39051 098.1579 295.8309 0003316 092.4121 267.7477 14.92429861 45990
0 RESURS O1 DEB
1 39051U 94074AB  13292.47190283  .00047811  00000-0  46276-2 0  2297
2 39051 098.1594 297.3594 0003392 096.0079 264.1525 14.92550301 46211
0 RESURS O1 DEB
1 39051U 94074AB  13293.47747980  .00049215  00000-0  47529-2 0  2304
2 39051 098.1579 298.4001 0003567 094.0471 266.1155 14.92628645 46361
0 RESURS O1 DEB
1 39051U 94074AB  13294.48300095  .00054631  00000-0  52615-2 0  2319
2 39051 098.1596 299.4403 0003624 093.5134 266.6499 14.92701776 46511
0 RESURS O1 DEB
1 39051U 94074AB  13295.48846884  .00058798  00000-0  56465-2 0  2327
2 39051 098.1601 300.4815 0003734 093.5588 266.6057 14.92789817 46661
